{"type": "FeatureCollection", "features": [ {"type": "Feature", "properties": {"norad_id": 37094, "name": "COSMOS 2251 DEB", "group": "cosmos-2251-debris", "lat": -69.22646713294506, "lon": -36.655040908845656, "alt_km": 828.6205707135832, "timestamp": "2025-12-27T04:40:45.902438+00:00", "meta": {"OBJECT_NAME": "COSMOS 2251 DEB", "OBJECT_ID": "1993-036BFQ", "EPOCH": "2025-12-10T15:45:11.030688", "MEAN_MOTION": 14.37808892, "ECCENTRICITY": 0.0084108, "INCLINATION": 74.1091, "RA_OF_ASC_NODE": 124.9809, "ARG_OF_PERICENTER": 91.4784, "MEAN_ANOMALY": 269.6007, "EPHEMERIS_TYPE": 0, "CLASSIFICATION_TYPE": "U", "NORAD_CAT_ID": 37094, "ELEMENT_SET_NO": 999, "REV_AT_EPOCH": 84476, "BSTAR": 0.0015212, "MEAN_MOTION_DOT": 4.753e-05, "MEAN_MOTION_DDOT": 0}, "tle": {"line1": "1 37094U 93036BFQ 25344.65637767  .00004753  00000+0  15212-2 0  9990", "line2": "2 37094  74.1091 124.9809 0084108  91.4784 269.6007 14.37808892844763"}}, "geometry": {"type": "Point", "coordinates": [-36.655040908845656, -69.22646713294506]}}, {"type": "Feature", "properties": {"norad_id": 37095, "name": "COSMOS 2251 DEB", "group": "cosmos-2251-debris", "lat": -12.244820461757124, "lon": -11.943657131817787, "alt_km": 760.0365497840048, "timestamp": "2025-12-27T04:40:45.902448+00:00", "meta": {"OBJECT_NAME": "COSMOS 2251 DEB", "OBJECT_ID": "1993-036BFR", "EPOCH": "2025-12-20T05:48:30.438144", "MEAN_MOTION": 14.03423265, "ECCENTRICITY": 0.01937256, "INCLINATION": 73.8447, "RA_OF_ASC_NODE": 176.6944, "ARG_OF_PERICENTER": 233.1449, "MEAN_ANOMALY": 125.1788, "EPHEMERIS_TYPE": 0, "CLASSIFICATION_TYPE": "U", "NORAD_CAT_ID": 37095, "ELEMENT_SET_NO": 999, "REV_AT_EPOCH": 62741, "BSTAR": 0.00075143733, "MEAN_MOTION_DOT": 1.362e-05, "MEAN_MOTION_DDOT": 0}, "tle": {"line1": "1 37095U 93036BFR 25354.24201896  .00001362  00000+0  75144-3 0  9991", "line2": "2 37095  73.8447 176.6944 0193725 233.1449 125.1788 14.03423265627411"}}, "geometry": {"type": "Point", "coordinates": [-11.943657131817787, -12.244820461757124]}}, {"type": "Feature", "properties": {"norad_id": 37108, "name": "COSMOS 2251 DEB", "group": "cosmos-2251-debris", "lat": 44.802905647507195, "lon": 70.31020722173264, "alt_km": 737.5166986529921, "timestamp": "2025-12-27T04:40:45.902457+00:00", "meta": {"OBJECT_NAME": "COSMOS 2251 DEB", "OBJECT_ID": "1993-036BGE", "EPOCH": "2025-12-26T20:07:55.391520", "MEAN_MOTION": 14.41401722, "ECCENTRICITY": 0.00899652, "INCLINATION": 74.044, "RA_OF_ASC_NODE": 54.4619, "ARG_OF_PERICENTER": 127.5346, "MEAN_ANOMALY": 233.4029, "EPHEMERIS_TYPE": 0, "CLASSIFICATION_TYPE": "U", "NORAD_CAT_ID": 37108, "ELEMENT_SET_NO": 999, "REV_AT_EPOCH": 85710, "BSTAR": 0.00097411201, "MEAN_MOTION_DOT": 3.287e-05, "MEAN_MOTION_DDOT": 0}, "tle": {"line1": "1 37108U 93036BGE 25360.83883555  .00003287  00000+0  97411-3 0  9995", "line2": "2 37108  74.0440  54.4619 0089965 127.5346 233.4029 14.41401722857104"}}, "geometry": {"type": "Point", "coordinates": [70.31020722173264, 44.802905647507195]}}, {"type": "Feature", "properties": {"norad_id": 37126, "name": "COSMOS 2251 DEB", "group": "cosmos-2251-debris", "lat": 22.56961259064322, "lon": 139.33902218999495, "alt_km": 588.8288284589034, "timestamp": "2025-12-27T04:40:45.902467+00:00", "meta": {"OBJECT_NAME": "COSMOS 2251 DEB", "OBJECT_ID": "1993-036BGY", "EPOCH": "2025-12-25T14:28:40.048320", "MEAN_MOTION": 14.73111648, "ECCENTRICITY": 0.0122556, "INCLINATION": 73.9501, "RA_OF_ASC_NODE": 329.3283, "ARG_OF_PERICENTER": 204.6714, "MEAN_ANOMALY": 154.8568, "EPHEMERIS_TYPE": 0, "CLASSIFICATION_TYPE": "U", "NORAD_CAT_ID": 37126, "ELEMENT_SET_NO": 999, "REV_AT_EPOCH": 8288, "BSTAR": 0.00020497, "MEAN_MOTION_DOT": 1.448e-05, "MEAN_MOTION_DDOT": 0}, "tle": {"line1": "1 37126U 93036BGY 25359.60324130  .00001448  00000+0  20497-3 0  9994", "line2": "2 37126  73.9501 329.3283 0122556 204.6714 154.8568 14.73111648 82880"}}, "geometry": {"type": "Point", "coordinates": [139.33902218999495, 22.56961259064322]}}, {"type": "Feature", "properties": {"norad_id": 37132, "name": "COSMOS 2251 DEB", "group": "cosmos-2251-debris", "lat": 70.03966099624118, "lon": -26.578865076734907, "alt_km": 635.1862443450591, "timestamp": "2025-12-27T04:40:45.902477+00:00", "meta": {"OBJECT_NAME": "COSMOS 2251 DEB", "OBJECT_ID": "1993-036BHE", "EPOCH": "2025-12-26T07:06:11.287872", "MEAN_MOTION": 14.78001376, "ECCENTRICITY": 0.0040558, "INCLINATION": 74.0015, "RA_OF_ASC_NODE": 207.3729, "ARG_OF_PERICENTER": 0.16, "MEAN_ANOMALY": 359.958, "EPHEMERIS_TYPE": 0, "CLASSIFICATION_TYPE": "U", "NORAD_CAT_ID": 37132, "ELEMENT_SET_NO": 999, "REV_AT_EPOCH": 62616, "BSTAR": 0.00084408, "MEAN_MOTION_DOT": 6.146e-05, "MEAN_MOTION_DDOT": 0}, "tle": {"line1": "1 37132U 93036BHE 25360.29596398  .00006146  00000+0  84408-3 0  9997", "line2": "2 37132  74.0015 207.3729 0040558   0.1600 359.9580 14.78001376626161"}}, "geometry": {"type": "Point", "coordinates": [-26.578865076734907, 70.03966099624118]}}, {"type": "Feature", "properties": {"norad_id": 37270, "name": "COSMOS 2251 DEB", "group": "cosmos-2251-debris", "lat": -54.69692408538623, "lon": 156.31553573316705, "alt_km": 996.5637758759822, "timestamp": "2025-12-27T04:40:45.902487+00:00", "meta": {"OBJECT_NAME": "COSMOS 2251 DEB", "OBJECT_ID": "1993-036BHJ", "EPOCH": "2025-12-12T22:45:06.098400", "MEAN_MOTION": 13.59808663, "ECCENTRICITY": 0.03985351, "INCLINATION": 73.9378, "RA_OF_ASC_NODE": 335.5481, "ARG_OF_PERICENTER": 347.3958, "MEAN_ANOMALY": 11.7404, "EPHEMERIS_TYPE": 0, "CLASSIFICATION_TYPE": "U", "NORAD_CAT_ID": 37270, "ELEMENT_SET_NO": 999, "REV_AT_EPOCH": 77072, "BSTAR": 0.0064936549, "MEAN_MOTION_DOT": 8.148e-05, "MEAN_MOTION_DDOT": 0}, "tle": {"line1": "1 37270U 93036BHJ 25346.94798725  .00008148  00000+0  64937-2 0  9992", "line2": "2 37270  73.9378 335.5481 0398535 347.3958  11.7404 13.59808663770728"}}, "geometry": {"type": "Point", "coordinates": [156.31553573316705, -54.69692408538623]}}, {"type": "Feature", "properties": {"norad_id": 37278, "name": "COSMOS 2251 DEB", "group": "cosmos-2251-debris", "lat": -71.20187131921806, "lon": -158.04579020205443, "alt_km": 942.1377681280474, "timestamp": "2025-12-27T04:40:45.902498+00:00", "meta": {"OBJECT_NAME": "COSMOS 2251 DEB", "OBJECT_ID": "1993-036BHS", "EPOCH": "2025-12-22T06:43:10.079328", "MEAN_MOTION": 14.15136552, "ECCENTRICITY": 0.02988964, "INCLINATION": 73.7862, "RA_OF_ASC_NODE": 332.08, "ARG_OF_PERICENTER": 152.8639, "MEAN_ANOMALY": 274.4968, "EPHEMERIS_TYPE": 0, "CLASSIFICATION_TYPE": "U", "NORAD_CAT_ID": 37278, "ELEMENT_SET_NO": 999, "REV_AT_EPOCH": 63964, "BSTAR": 0.0007998951, "MEAN_MOTION_DOT": 2.366e-05, "MEAN_MOTION_DDOT": 0}, "tle": {"line1": "1 37278U 93036BHS 25356.27997777  .00002366  00000+0  79990-3 0  9997", "line2": "2 37278  73.7862 332.0800 0298896 152.8639 274.4968 14.15136552639645"}}, "geometry": {"type": "Point", "coordinates": [-158.04579020205443, -71.20187131921806]}}, {"type": "Feature", "properties": {"norad_id": 37280, "name": "COSMOS 2251 DEB", "group": "cosmos-2251-debris", "lat": 59.24803331767902, "lon": 59.99622548563577, "alt_km": 825.5116245451736, "timestamp": "2025-12-27T04:40:45.902507+00:00", "meta": {"OBJECT_NAME": "COSMOS 2251 DEB", "OBJECT_ID": "1993-036BHU", "EPOCH": "2025-12-24T08:42:55.097280", "MEAN_MOTION": 14.19374869, "ECCENTRICITY": 0.01298569, "INCLINATION": 74.0307, "RA_OF_ASC_NODE": 36.2886, "ARG_OF_PERICENTER": 162.4519, "MEAN_ANOMALY": 198.1176, "EPHEMERIS_TYPE": 0, "CLASSIFICATION_TYPE": "U", "NORAD_CAT_ID": 37280, "ELEMENT_SET_NO": 999, "REV_AT_EPOCH": 57488, "BSTAR": 0.0012209104, "MEAN_MOTION_DOT": 2.768e-05, "MEAN_MOTION_DDOT": 0}, "tle": {"line1": "1 37280U 93036BHU 25358.36313770  .00002768  00000+0  12209-2 0  9992", "line2": "2 37280  74.0307  36.2886 0129856 162.4519 198.1176 14.19374869574882"}}, "geometry": {"type": "Point", "coordinates": [59.99622548563577, 59.24803331767902]}}, {"type": "Feature", "properties": {"norad_id": 37284, "name": "COSMOS 2251 DEB", "group": "cosmos-2251-debris", "lat": 72.03911450680589, "lon": -166.6801497702849, "alt_km": 952.6602844034924, "timestamp": "2025-12-27T04:40:45.902518+00:00", "meta": {"OBJECT_NAME": "COSMOS 2251 DEB", "OBJECT_ID": "1993-036BHY", "EPOCH": "2025-12-10T18:04:20.469216", "MEAN_MOTION": 14.12686618, "ECCENTRICITY": 0.01605026, "INCLINATION": 74.0123, "RA_OF_ASC_NODE": 160.2425, "ARG_OF_PERICENTER": 312.4867, "MEAN_ANOMALY": 59.8736, "EPHEMERIS_TYPE": 0, "CLASSIFICATION_TYPE": "U", "NORAD_CAT_ID": 37284, "ELEMENT_SET_NO": 999, "REV_AT_EPOCH": 59147, "BSTAR": 0.001592138, "MEAN_MOTION_DOT": 3.31e-05, "MEAN_MOTION_DDOT": 0}, "tle": {"line1": "1 37284U 93036BHY 25344.75301469  .00003310  00000+0  15921-2 0  9994", "line2": "2 37284  74.0123 160.2425 0160502 312.4867  59.8736 14.12686618591475"}}, "geometry": {"type": "Point", "coordinates": [-166.6801497702849, 72.03911450680589]}}, {"type": "Feature", "properties": {"norad_id": 37292, "name": "COSMOS 2251 DEB", "group": "cosmos-2251-debris", "lat": 68.08657155726324, "lon": 69.76359871898534, "alt_km": 778.1297891271579, "timestamp": "2025-12-27T04:40:45.902528+00:00", "meta": {"OBJECT_NAME": "COSMOS 2251 DEB", "OBJECT_ID": "1993-036BJG", "EPOCH": "2025-12-26T09:31:08.762016", "MEAN_MOTION": 14.03365148, "ECCENTRICITY": 0.0209173, "INCLINATION": 74.1335, "RA_OF_ASC_NODE": 26.1539, "ARG_OF_PERICENTER": 25.0938, "MEAN_ANOMALY": 336.0187, "EPHEMERIS_TYPE": 0, "CLASSIFICATION_TYPE": "U", "NORAD_CAT_ID": 37292, "ELEMENT_SET_NO": 999, "REV_AT_EPOCH": 60040, "BSTAR": 0.0019214, "MEAN_MOTION_DOT": 3.623e-05, "MEAN_MOTION_DDOT": 0}, "tle": {"line1": "1 37292U 93036BJG 25360.39662919  .00003623  00000+0  19214-2 0  9997", "line2": "2 37292  74.1335  26.1539 0209173  25.0938 336.0187 14.03365148600406"}}, "geometry": {"type": "Point", "coordinates": [69.76359871898534, 68.08657155726324]}}]}